[{"OBJECT_NAME":"STARLINK-32415","OBJECT_ID":"2024-202S","EPOCH":"2026-03-09T12:59:44.258208","MEAN_MOTION":15.27575199,"ECCENTRICITY":0.00017932,"INCLINATION":43.0016,"RA_OF_ASC_NODE":238.9403,"ARG_OF_PERICENTER":270.3936,"MEAN_ANOMALY":89.671,"EPHEMERIS_TYPE":0,"CLASSIFICATION_TYPE":"U","NORAD_CAT_ID":61861,"ELEMENT_SET_NO":999,"REV_AT_EPOCH":7530,"BSTAR":2.703256e-5,"MEAN_MOTION_DOT":4.82e-6,"MEAN_MOTION_DDOT":0},{"OBJECT_NAME":"FLOCK 4G-8","OBJECT_ID":"2025-009E","EPOCH":"2026-03-09T17:22:17.546016","MEAN_MOTION":15.27623414,"ECCENTRICITY":0.00030503,"INCLINATION":97.4045,"RA_OF_ASC_NODE":151.2834,"ARG_OF_PERICENTER":315.2538,"MEAN_ANOMALY":44.8455,"EPHEMERIS_TYPE":0,"CLASSIFICATION_TYPE":"U","NORAD_CAT_ID":62613,"ELEMENT_SET_NO":999,"REV_AT_EPOCH":6372,"BSTAR":0.0005043806,"MEAN_MOTION_DOT":0.00013559,"MEAN_MOTION_DDOT":0}]
